ONEWEB-0704             
1 61609U 24188R   25216.18581647 -.00000014  00000+0 -75745-4 0  9999
2 61609  87.8825  99.4282 0001278  43.9138 316.2091 13.10375782 41770
ONEWEB-0705             
1 61610U 24188S   25216.19081481 -.00001302  00000+0 -37676-2 0  9993
2 61610  87.8791  99.4693 0000809 103.2079 256.9139 13.10362437 33949
ONEWEB-0706             
1 61611U 24188T   25216.17579597 -.00000393  00000+0 -11619-2 0  9990
2 61611  87.8796  99.5003 0001444  71.3488 288.7796 13.10372484 41861
ONEWEB-0707             
1 61612U 24188U   25216.18250396 -.00000114  00000+0 -36333-3 0  9997
2 61612  87.8798  99.4641 0001302  63.1299 296.9961 13.10378250 41809
ONEWEB-0708             
1 61613U 24188V   25216.20076719  .00000707  00000+0  19879-2 0  9997
2 61613  87.8834  99.4914 0000981  79.8766 280.2472 13.10373244 41787
