[{"OBJECT_NAME":"ONEWEB-0704","OBJECT_ID":"2024-188R","EPOCH":"2025-08-04T04:27:34.543008","MEAN_MOTION":13.10375782,"ECCENTRICITY":0.0001278,"INCLINATION":87.8825,"RA_OF_ASC_NODE":99.4282,"ARG_OF_PERICENTER":43.9138,"MEAN_ANOMALY":316.2091,"EPHEMERIS_TYPE":0,"CLASSIFICATION_TYPE":"U","NORAD_CAT_ID":61609,"ELEMENT_SET_NO":999,"REV_AT_EPOCH":4177,"BSTAR":-7.5745e-5,"MEAN_MOTION_DOT":-1.4e-7,"MEAN_MOTION_DDOT":0},{"OBJECT_NAME":"ONEWEB-0705","OBJECT_ID":"2024-188S","EPOCH":"2025-08-04T04:34:46.399584","MEAN_MOTION":13.10362437,"ECCENTRICITY":8.09e-5,"INCLINATION":87.8791,"RA_OF_ASC_NODE":99.4693,"ARG_OF_PERICENTER":103.2079,"MEAN_ANOMALY":256.9139,"EPHEMERIS_TYPE":0,"CLASSIFICATION_TYPE":"U","NORAD_CAT_ID":61610,"ELEMENT_SET_NO":999,"REV_AT_EPOCH":3394,"BSTAR":-0.0037676,"MEAN_MOTION_DOT":-1.302e-5,"MEAN_MOTION_DDOT":0},{"OBJECT_NAME":"ONEWEB-0706","OBJECT_ID":"2024-188T","EPOCH":"2025-08-04T04:13:08.771808","MEAN_MOTION":13.10372484,"ECCENTRICITY":0.0001444,"INCLINATION":87.8796,"RA_OF_ASC_NODE":99.5003,"ARG_OF_PERICENTER":71.3488,"MEAN_ANOMALY":288.7796,"EPHEMERIS_TYPE":0,"CLASSIFICATION_TYPE":"U","NORAD_CAT_ID":61611,"ELEMENT_SET_NO":999,"REV_AT_EPOCH":4186,"BSTAR":-0.0011619,"MEAN_MOTION_DOT":-3.93e-6,"MEAN_MOTION_DDOT":0},{"OBJECT_NAME":"ONEWEB-0707","OBJECT_ID":"2024-188U","EPOCH":"2025-08-04T04:22:48.342144","MEAN_MOTION":13.1037825,"ECCENTRICITY":0.0001302,"INCLINATION":87.8798,"RA_OF_ASC_NODE":99.4641,"ARG_OF_PERICENTER":63.1299,"MEAN_ANOMALY":296.9961,"EPHEMERIS_TYPE":0,"CLASSIFICATION_TYPE":"U","NORAD_CAT_ID":61612,"ELEMENT_SET_NO":999,"REV_AT_EPOCH":4180,"BSTAR":-0.00036333,"MEAN_MOTION_DOT":-1.14e-6,"MEAN_MOTION_DDOT":0},{"OBJECT_NAME":"ONEWEB-0708","OBJECT_ID":"2024-188V","EPOCH":"2025-08-04T04:49:06.285216","MEAN_MOTION":13.10373244,"ECCENTRICITY":9.81e-5,"INCLINATION":87.8834,"RA_OF_ASC_NODE":99.4914,"ARG_OF_PERICENTER":79.8766,"MEAN_ANOMALY":280.2472,"EPHEMERIS_TYPE":0,"CLASSIFICATION_TYPE":"U","NORAD_CAT_ID":61613,"ELEMENT_SET_NO":999,"REV_AT_EPOCH":4178,"BSTAR":0.0019879,"MEAN_MOTION_DOT":7.07e-6,"MEAN_MOTION_DDOT":0}]
